CAS-2T & KS-1Q          
1 41847U 16066G   20349.41101489  .00000132  00000-0  29620-4 0  9998
2 41847  98.6304  41.5100 0366366  52.6305 310.7658 14.38125902215281
NAYIF-1 (EO-88)         
1 42017U 17008BX  20349.45656303  .00002801  00000-0  10774-3 0  9993
2 42017  97.3411  54.2495 0007344  55.0612 305.1316 15.27206486213014
ZHUHAI-1 02 (CAS-4B)    
1 42759U 17034B   20350.21316714  .00000631  00000-0  51573-4 0  9992
2 42759  43.0170 113.8039 0008825  84.8056 342.9996 15.10000864193294
ZHUHAI-1 01 (CAS-4A)    
1 42761U 17034D   20350.21425434  .00000635  00000-0  51721-4 0  9994
2 42761  43.0170 112.9773 0009258  85.8986 342.5441 15.10081041193293
MAX VALIER SAT          
1 42778U 17036P   20349.72001805  .00001588  00000-0  70195-4 0  9994
2 42778  97.2823  38.1643 0013704 106.1590 254.1157 15.23047227193161
RADFXSAT (FOX-1B)       
1 43017U 17073E   20349.75144695  .00000639  00000-0  54767-4 0  9993
2 43017  97.7169 254.9683 0255943 182.4371 177.5614 14.79210876165814
FOX-1D (AO-92)          
1 43137U 18004AC  20350.14100520  .00001881  00000-0  79100-4 0  9993
2 43137  97.4289  59.9343 0010181 133.7735 226.4347 15.24608931162569
DIWATA-2B               
1 43678U 18084H   20350.05620150  .00000389  00000-0  44415-4 0  9990
2 43678  97.9033 108.6775 0008937 306.7176  53.3186 14.91688792115943
ES'HAIL 2               
1 43700U 18090A   20349.51832993  .00000148  00000-0  00000-0 0  9993
2 43700   0.0138 307.1890 0001291 346.7790   2.0746  1.00270640  7517
FOX-1CLIFF (AO-95)      
1 43770U 18099N   20349.48070401  .00000919  00000-0  88903-4 0  9991
2 43770  97.6886  57.5528 0013385 320.5579  39.4666 14.95136392110818
ITASAT 1                
1 43786U 18099AE  20350.17380835  .00000030  00000-0  79062-5 0  9992
2 43786  97.6902  58.7812 0014039 310.7784  49.2218 14.95456660110948
JY1SAT (JO-97)          
1 43803U 18099AX  20350.16559394  .00000372  00000-0  38572-4 0  9998
2 43803  97.6866  58.5529 0013909 311.1448  48.8572 14.95664808110940
PSAT2 (NO-104)          
1 44354U 19036R   20349.47011334  .00017501  00000-0  24499-3 0  9995
2 44354  28.5281 275.2392 0346770  78.6914 285.2430 15.08076533 80976
BRICSAT2 (NO-103)       
1 44355U 19036S   20349.42764457  .00033543  00000-0  42387-3 0  9992
2 44355  28.5261 254.2742 0308489 112.7302 250.6198 15.17951457 81185
JAISAT-1                
1 44419U 19038F   20349.45172753  .00001631  00000-0  95216-4 0  9993
2 44419  97.5638 309.2170 0019971 227.4804 132.4741 15.13206166 79816
DUCHIFAT-3              
1 44854U 19089C   20350.06077865  .00000854  00000-0  75110-4 0  9996
2 44854  36.9659 110.8827 0007178  75.8113 284.3450 14.99251291 55414
RS-44 & BREEZE-KM R/B   
1 44909U 19096E   20349.41308451  .00000030  00000-0  70486-4 0  9997
2 44909  82.5223 235.7313 0217567 165.4960 195.2522 12.79707699 45207
ORBITAL FACTORY 2 (OF-2)
1 45113U 19071C   20348.93098648  .00003548  00000-0  11612-3 0  9990
2 45113  51.6409 216.0609 0012106 347.4009  12.6669 15.34358495 48674
HUSKYSAT-1              
1 45119U 19071J   20349.92928382  .00002175  00000-0  75268-4 0  9996
2 45119  51.6406 210.7258 0011497 347.6558  12.4141 15.34505619 48823
BY70-2                  
1 45857U 20042B   20350.14552174  .00001540  00000-0  22790-3 0  9999
2 45857  98.0011  61.7387 0012391  89.9877 270.2760 14.76545121 24349
SALSAT                  
1 46495U 20068K   20349.62811945  .00001209  00000-0  93517-4 0  9999
2 46495  97.6769 282.4226 0016590 341.9410  18.1224 15.03299065 11564
BY70-3                  
1 46839U 20079N   20350.24491560  .00003920  00000-0  12746-3 0  9996
2 46839  97.2627  61.7195 0008546 137.3286 278.7722 15.32450462  5986
